{
  "type": "FeatureCollection",
  "generator": "overpass-turbo",
  "copyright": "The data included in this document is from www.openstreetmap.org. The data is made available under ODbL.",
  "timestamp": "2026-01-06T16:09:29Z",
  "features": [
    {
      "type": "Feature",
      "properties": {
        "@id": "way/45088958",
        "natural": "water",
        "old_name": "Zeevaartsluis",
        "source": "3dShapes",
        "start_date": "1968",
        "water": "lock",
        "wikidata": "Q124361413"
      },
      "geometry": {
        "type": "Polygon",
        "coordinates": [
          [
            [
              3.8163641,
              51.3296792
            ],
            [
              3.8162216,
              51.3298588
            ],
            [
              3.8158813,
              51.3302877
            ],
            [
              3.8156185,
              51.3302048
            ],
            [
              3.8153696,
              51.3301263
            ],
            [
              3.8155954,
              51.329845
            ],
            [
              3.8148935,
              51.3296227
            ],
            [
              3.8149524,
              51.3295486
            ],
            [
              3.8156429,
              51.3297744
            ],
            [
              3.8156613,
              51.3297637
            ],
            [
              3.8158824,
              51.3294841
            ],
            [
              3.8158799,
              51.329475
            ],
            [
              3.8151791,
              51.3292648
            ],
            [
              3.815238,
              51.3291872
            ],
            [
              3.8159122,
              51.3293919
            ],
            [
              3.816139,
              51.3291145
            ],
            [
              3.8170164,
              51.3280563
            ],
            [
              3.8163128,
              51.3278343
            ],
            [
              3.8163583,
              51.3277772
            ],
            [
              3.816374,
              51.3277589
            ],
            [
              3.8170801,
              51.3279776
            ],
            [
              3.8177809,
              51.3270995
            ],
            [
              3.8171064,
              51.3268857
            ],
            [
              3.8170576,
              51.326869
            ],
            [
              3.8171234,
              51.3267873
            ],
            [
              3.8178476,
              51.3270146
            ],
            [
              3.8179196,
              51.326923
            ],
            [
              3.8172159,
              51.3267098
            ],
            [
              3.8172708,
              51.3266311
            ],
            [
              3.8179709,
              51.3268526
            ],
            [
              3.8181768,
              51.3265907
            ],
            [
              3.8181792,
              51.3265736
            ],
            [
              3.8187057,
              51.3267386
            ],
            [
              3.8186809,
              51.326762
            ],
            [
              3.8185513,
              51.3269216
            ],
            [
              3.8163641,
              51.3296792
            ]
          ]
        ]
      },
      "id": "way/45088958"
    },
    {
      "type": "Feature",
      "properties": {
        "@id": "way/772871833",
        "natural": "water",
        "start_date": "2024",
        "water": "lock",
        "wikidata": "Q124361414"
      },
      "geometry": {
        "type": "Polygon",
        "coordinates": [
          [
            [
              3.8171294,
              51.3316859
            ],
            [
              3.8180004,
              51.3302759
            ],
            [
              3.8200035,
              51.3271022
            ],
            [
              3.8203526,
              51.3271716
            ],
            [
              3.820733,
              51.3272715
            ],
            [
              3.820515,
              51.3276168
            ],
            [
              3.8213848,
              51.3278295
            ],
            [
              3.8213365,
              51.3279091
            ],
            [
              3.8204668,
              51.3276933
            ],
            [
              3.8203846,
              51.3278236
            ],
            [
              3.8212386,
              51.328039
            ],
            [
              3.8211916,
              51.328117
            ],
            [
              3.8203331,
              51.3279052
            ],
            [
              3.8186817,
              51.3305222
            ],
            [
              3.8182341,
              51.331245
            ],
            [
              3.8191196,
              51.3314806
            ],
            [
              3.819074,
              51.3315518
            ],
            [
              3.8181708,
              51.3313455
            ],
            [
              3.8180738,
              51.3314872
            ],
            [
              3.8189681,
              51.3317018
            ],
            [
              3.8189252,
              51.3317722
            ],
            [
              3.8180227,
              51.3315683
            ],
            [
              3.8178484,
              51.3318618
            ],
            [
              3.8174574,
              51.3317745
            ],
            [
              3.8171294,
              51.3316859
            ]
          ]
        ]
      },
      "id": "way/772871833"
    },
    {
      "type": "Feature",
      "properties": {
        "@id": "way/45088979",
        "natural": "water",
        "old_name": "Binnenvaartsluis",
        "source": "3dShapes",
        "start_date": "1968",
        "water": "lock",
        "wikidata": "Q124361412"
      },
      "geometry": {
        "type": "Polygon",
        "coordinates": [
          [
            [
              3.8202318,
              51.333256
            ],
            [
              3.8204377,
              51.3332343
            ],
            [
              3.8206266,
              51.3332904
            ],
            [
              3.8206017,
              51.3332857
            ],
            [
              3.8205847,
              51.3333508
            ],
            [
              3.8206092,
              51.3333537
            ],
            [
              3.8205791,
              51.3334869
            ],
            [
              3.8205536,
              51.3334853
            ],
            [
              3.8202439,
              51.3347687
            ],
            [
              3.8201715,
              51.3350757
            ],
            [
              3.8200132,
              51.3358057
            ],
            [
              3.82004,
              51.3358097
            ],
            [
              3.8200099,
              51.3359333
            ],
            [
              3.8199841,
              51.3359312
            ],
            [
              3.8199294,
              51.3361798
            ],
            [
              3.8199549,
              51.336183
            ],
            [
              3.8197485,
              51.3362038
            ],
            [
              3.8195613,
              51.3361453
            ],
            [
              3.8195835,
              51.3361491
            ],
            [
              3.8196429,
              51.3358992
            ],
            [
              3.8196151,
              51.3358978
            ],
            [
              3.8196481,
              51.3357614
            ],
            [
              3.8196753,
              51.3357636
            ],
            [
              3.8199096,
              51.334726
            ],
            [
              3.8202176,
              51.3334534
            ],
            [
              3.8201904,
              51.3334519
            ],
            [
              3.8202197,
              51.3333166
            ],
            [
              3.8202437,
              51.3333181
            ],
            [
              3.8202555,
              51.3332592
            ],
            [
              3.8202318,
              51.333256
            ]
          ]
        ]
      },
      "id": "way/45088979"
    }
  ]
}