{
"type": "FeatureCollection",
"name": "Volkerak_lock",
"crs": { "type": "name", "properties": { "name": "urn:ogc:def:crs:OGC:1.3:CRS84" } },
"features": [
{ "type": "Feature", "properties": { "type": "way", "id": 56198966, "nodes": [ 4515246328, 8536258682, 8536258681, 4515246325, 8536258679, 8536258680, 8536284534, 8536284533, 1134457927, 8536284530, 8536284531, 4515246321, 8536258676, 8536284525, 8536284540, 8536284524, 4515246352, 8536284541, 8536284542, 4515246354, 2580607086, 4515246353, 8536284521, 8536284520, 4515246323, 8536284518, 8536284519, 8536284517, 8536258713, 1134457725, 8536284526, 8536284527, 4515246322, 8536258711, 8536258712, 1134457826, 8536258708, 1134686215, 8536258707, 8536258706, 4515246326, 4515246327, 4515246328 ], "bounds.minlat": 51.6888605, "bounds.minlon": 4.4079928, "bounds.maxlat": 51.6911112, "bounds.maxlon": 4.412082, "tags.CEMT": "VIb", "tags.boat": "yes", "tags.image": "https://photos.app.goo.gl/N17kH1rdrwD75BD69", "tags.length": "331.5", "tags.lock": "yes", "tags.lock_name": "Oostkolk Volkeraksluis", "tags.maxheight_referencelevel": "NAP", "tags.maxlength:high_tide": "331.5", "tags.maxlength:low_tide": "331.5", "tags.maxwidth": "24.1", "tags.name": "Volkeraksluizen", "tags.natural": "water", "tags.phone": "+31 88 797 4990", "tags.url": "https://youtu.be/VHbaJfyRVzU", "tags.vhf": "7;25;64", "tags.water": "lock", "tags.wikidata": "Q1886412", "tags.wikipedia": "nl:Volkeraksluizen", "tags.waterway": null }, "geometry": { "type": "Polygon", "coordinates": [ [ [ 4.4079928, 51.6890437 ], [ 4.4080059, 51.6890315 ], [ 4.4080601, 51.689065 ], [ 4.4080473, 51.6890758 ], [ 4.4081941, 51.6891555 ], [ 4.4082113, 51.6891442 ], [ 4.409748, 51.6899742 ], [ 4.4097351, 51.6899843 ], [ 4.4098784, 51.6900636 ], [ 4.4098909, 51.690052 ], [ 4.4099511, 51.6900836 ], [ 4.4099322, 51.6900919 ], [ 4.4100739, 51.6901704 ], [ 4.4100921, 51.6901597 ], [ 4.4116317, 51.6909935 ], [ 4.4116168, 51.6910031 ], [ 4.4117613, 51.6910801 ], [ 4.4117766, 51.6910699 ], [ 4.411837, 51.6911007 ], [ 4.4118193, 51.6911112 ], [ 4.4119815, 51.691053 ], [ 4.412082, 51.6909299 ], [ 4.4120679, 51.690939 ], [ 4.412007, 51.6909098 ], [ 4.4120214, 51.6908994 ], [ 4.4118741, 51.6908194 ], [ 4.4118576, 51.6908291 ], [ 4.4103163, 51.6899973 ], [ 4.4103347, 51.6899853 ], [ 4.4101912, 51.6899116 ], [ 4.4101777, 51.6899219 ], [ 4.4101145, 51.6898874 ], [ 4.4101286, 51.6898757 ], [ 4.4099938, 51.6898003 ], [ 4.4099749, 51.6898114 ], [ 4.4084415, 51.6889809 ], [ 4.4084554, 51.6889705 ], [ 4.4083095, 51.688892 ], [ 4.4082955, 51.6889004 ], [ 4.4082398, 51.6888711 ], [ 4.4082562, 51.6888605 ], [ 4.4080697, 51.6889248 ], [ 4.4079928, 51.6890437 ] ] ] } },
{ "type": "Feature", "properties": { "type": "way", "id": 251906187, "nodes": [ 4515246327, 2580607082, 4297997740, 4515246320, 4515246324, 2580607086 ], "bounds.minlat": 51.6889248, "bounds.minlon": 4.4080697, "bounds.maxlat": 51.691053, "bounds.maxlon": 4.4119815, "tags.CEMT": "VIb", "tags.boat": "yes", "tags.image": null, "tags.length": "331.5", "tags.lock": "yes", "tags.lock_name": "Oostkolk Volkeraksluis", "tags.maxheight_referencelevel": "NAP", "tags.maxlength:high_tide": "331.5", "tags.maxlength:low_tide": "331.5", "tags.maxwidth": "24.1", "tags.name": "Volkeraksluizen", "tags.natural": null, "tags.phone": "+31 88 797 4990", "tags.url": null, "tags.vhf": "7;25;64", "tags.water": null, "tags.wikidata": "Q1886412", "tags.wikipedia": "nl:Volkeraksluizen", "tags.waterway": "canal" }, "geometry": { "type": "Polygon", "coordinates": [ [ [ 4.4080697, 51.6889248 ], [ 4.4082256, 51.6890095 ], [ 4.409939, 51.6899418 ], [ 4.4101235, 51.6900421 ], [ 4.4118169, 51.6909635 ], [ 4.4119815, 51.691053 ], [ 4.4080697, 51.6889248 ] ] ] } }
]
}
