{
  "type": "FeatureCollection",
  "generator": "overpass-turbo",
  "copyright": "The data included in this document is from www.openstreetmap.org. The data is made available under ODbL.",
  "timestamp": "2025-09-25T09:25:39Z",
  "features": [
    {
      "type": "Feature",
      "properties": {
        "@id": "way/56198966",
        "CEMT": "VIb",
        "boat": "yes",
        "image": "https://photos.app.goo.gl/N17kH1rdrwD75BD69",
        "length": "331.5",
        "lock": "yes",
        "lock_name": "Oostkolk Volkeraksluis",
        "maxheight_referencelevel": "NAP",
        "maxlength:high_tide": "331.5",
        "maxlength:low_tide": "331.5",
        "maxwidth": "24.1",
        "name": "Volkeraksluizen",
        "natural": "water",
        "phone": "+31 88 797 4990",
        "url": "https://youtu.be/VHbaJfyRVzU",
        "vhf": "7;25;64",
        "water": "lock",
        "wikidata": "Q1886412",
        "wikipedia": "nl:Volkeraksluizen"
      },
      "geometry": {
        "type": "Polygon",
        "coordinates": [
          [
            [
              4.4079928,
              51.6890437
            ],
            [
              4.4080697,
              51.6889248
            ],
            [
              4.4082562,
              51.6888605
            ],
            [
              4.4082398,
              51.6888711
            ],
            [
              4.4082955,
              51.6889004
            ],
            [
              4.4083095,
              51.688892
            ],
            [
              4.4084554,
              51.6889705
            ],
            [
              4.4084415,
              51.6889809
            ],
            [
              4.4099749,
              51.6898114
            ],
            [
              4.4099938,
              51.6898003
            ],
            [
              4.4101286,
              51.6898757
            ],
            [
              4.4101145,
              51.6898874
            ],
            [
              4.4101777,
              51.6899219
            ],
            [
              4.4101912,
              51.6899116
            ],
            [
              4.4103347,
              51.6899853
            ],
            [
              4.4103163,
              51.6899973
            ],
            [
              4.4118576,
              51.6908291
            ],
            [
              4.4118741,
              51.6908194
            ],
            [
              4.4120214,
              51.6908994
            ],
            [
              4.412007,
              51.6909098
            ],
            [
              4.4120679,
              51.690939
            ],
            [
              4.412082,
              51.6909299
            ],
            [
              4.4119815,
              51.691053
            ],
            [
              4.4118193,
              51.6911112
            ],
            [
              4.411837,
              51.6911007
            ],
            [
              4.4117766,
              51.6910699
            ],
            [
              4.4117613,
              51.6910801
            ],
            [
              4.4116168,
              51.6910031
            ],
            [
              4.4116317,
              51.6909935
            ],
            [
              4.4100921,
              51.6901597
            ],
            [
              4.4100739,
              51.6901704
            ],
            [
              4.4099322,
              51.6900919
            ],
            [
              4.4099511,
              51.6900836
            ],
            [
              4.4098909,
              51.690052
            ],
            [
              4.4098784,
              51.6900636
            ],
            [
              4.4097351,
              51.6899843
            ],
            [
              4.409748,
              51.6899742
            ],
            [
              4.4082113,
              51.6891442
            ],
            [
              4.4081941,
              51.6891555
            ],
            [
              4.4080473,
              51.6890758
            ],
            [
              4.4080601,
              51.689065
            ],
            [
              4.4080059,
              51.6890315
            ],
            [
              4.4079928,
              51.6890437
            ]
          ]
        ]
      },
      "id": "way/56198966"
    }
  ]
}