{
  "type": "FeatureCollection",
  "generator": "overpass-turbo",
  "copyright": "The data included in this document is from www.openstreetmap.org. The data is made available under ODbL.",
  "timestamp": "2026-04-09T08:52:13Z",
  "features": [
    {
      "type": "Feature",
      "properties": {
        "@id": "way/47035662",
        "natural": "water",
        "water": "lock"
      },
      "geometry": {
        "type": "Polygon",
        "coordinates": [
          [
            [
              4.0093922,
              51.4569813
            ],
            [
              4.0092244,
              51.4569587
            ],
            [
              4.0090492,
              51.4569351
            ],
            [
              4.0099522,
              51.4543986
            ],
            [
              4.0101194,
              51.4544223
            ],
            [
              4.0102865,
              51.454446
            ],
            [
              4.010273,
              51.4544856
            ],
            [
              4.0098736,
              51.4556577
            ],
            [
              4.0093955,
              51.4569723
            ],
            [
              4.0093922,
              51.4569813
            ]
          ]
        ]
      },
      "id": "way/47035662"
    },
    {
      "type": "Feature",
      "properties": {
        "@id": "way/47035663",
        "natural": "water",
        "water": "lock"
      },
      "geometry": {
        "type": "Polygon",
        "coordinates": [
          [
            [
              4.0103767,
              51.4570339
            ],
            [
              4.0102066,
              51.4570091
            ],
            [
              4.0100366,
              51.4569842
            ],
            [
              4.0100417,
              51.4569699
            ],
            [
              4.0109227,
              51.4544856
            ],
            [
              4.010934,
              51.4544537
            ],
            [
              4.0111091,
              51.4544792
            ],
            [
              4.011269,
              51.4545027
            ],
            [
              4.0103767,
              51.4570339
            ]
          ]
        ]
      },
      "id": "way/47035663"
    }
  ]
}